ORBCOMM FM05            
1 25117U 97084F   25163.93303925  .00001146  00000+0  35941-3 0  9991
2 25117  45.0163  28.4803 0001759 179.4816 180.6037 14.45933231439994
ORBCOMM FM06            
1 25118U 97084G   25163.92809005  .00001117  00000+0  35043-3 0  9992
2 25118  45.0156  28.2465 0000798 163.4758 210.7376 14.46066385440912
ORBCOMM FM07            
1 25119U 97084H   25163.93875738  .00001059  00000+0  33436-3 0  9999
2 25119  45.0152  28.9641 0002583 176.2757 183.8114 14.46061782440902
ORBCOMM FM03            
1 25158U 98007B   25163.87085754  .00000829  00000+0  33670-3 0  9996
2 25158 107.9651 126.7312 0046478 257.6411 101.9524 14.34500136423423
ORBCOMM FM04            
1 25159U 98007C   25163.85580561  .00000697  00000+0  28974-3 0  9995
2 25159 107.9640 129.9189 0042224 255.2444 104.4015 14.34748386423608
ORBCOMM FM17            
1 25413U 98046A   25163.73427599  .00000511  00000+0  22643-3 0  9991
2 25413  44.9947 278.6216 0004324 199.0529 161.0157 14.35090347402535
ORBCOMM FM18            
1 25414U 98046B   25163.76651970  .00000643  00000+0  25433-3 0  9993
2 25414  44.9913 195.9854 0007110 262.8636  97.1404 14.38548350403611
ORBCOMM FM19            
1 25415U 98046C   25163.46195674  .00000656  00000+0  25967-3 0  9991
2 25415  44.9926 199.4225 0005865 257.8279 242.3330 14.38356178403526
